[{"OBJECT_NAME":"STARLINK-32497","OBJECT_ID":"2024-224Y","EPOCH":"2026-03-09T07:31:50.026944","MEAN_MOTION":15.27587021,"ECCENTRICITY":9.983e-5,"INCLINATION":42.9993,"RA_OF_ASC_NODE":163.5927,"ARG_OF_PERICENTER":178.3372,"MEAN_ANOMALY":181.7484,"EPHEMERIS_TYPE":0,"CLASSIFICATION_TYPE":"U","NORAD_CAT_ID":62161,"ELEMENT_SET_NO":999,"REV_AT_EPOCH":7237,"BSTAR":0.00093672831,"MEAN_MOTION_DOT":0.0002561,"MEAN_MOTION_DDOT":0},{"OBJECT_NAME":"ELECTRON KICK STAGE R\/B","OBJECT_ID":"2024-047B","EPOCH":"2026-03-09T21:11:54.433824","MEAN_MOTION":15.27307897,"ECCENTRICITY":0.00092426,"INCLINATION":97.6338,"RA_OF_ASC_NODE":46.9382,"ARG_OF_PERICENTER":20.6031,"MEAN_ANOMALY":339.5579,"EPHEMERIS_TYPE":0,"CLASSIFICATION_TYPE":"U","NORAD_CAT_ID":59225,"ELEMENT_SET_NO":999,"REV_AT_EPOCH":10999,"BSTAR":0.00091229405,"MEAN_MOTION_DOT":0.00024409,"MEAN_MOTION_DDOT":0}]
